[
  {
    "id": 101,
    "userId": "9e8a4104-8d5c-4d67-a42b-99befc885ec0",
    "address": "2516 Windmill Lane",
    "city": "Jayceboro",
    "state": "Missouri",
    "zip": "07316",
    "isJobSite": true,
    "note": "Distinctio crepusculum campana aggero debeo vallum pauper vox talus."
  },
  {
    "id": 745,
    "userId": "1e0add8d-7364-4e08-9660-945577ec784b",
    "address": "5965 Fay Tunnel",
    "city": "Framingham",
    "state": "Florida",
    "zip": "88369",
    "isJobSite": false,
    "note": "Deprecator ipsam taceo subseco trucido cohibeo."
  },
  {
    "id": 384,
    "userId": "3fc8dd1c-cb9e-4c1a-a8fe-441834446cc7",
    "address": "6597 Oxford Road",
    "city": "Meaganworth",
    "state": "Mississippi",
    "zip": "62969",
    "isJobSite": false,
    "note": "Amicitia defungo tempus valeo."
  },
  {
    "id": 736,
    "userId": "c31ec476-0eb7-4041-99ad-336af3ef3921",
    "address": "47631 Orville Underpass",
    "city": "New Stanfordshire",
    "state": "South Carolina",
    "zip": "21004-3331",
    "isJobSite": false,
    "note": "Cinis tero cariosus ara ipsa atrocitas repudiandae thymum valde."
  },
  {
    "id": 112,
    "userId": "5f9bae9f-2971-452c-8553-8fa4ac3e03fe",
    "address": "299 Josiane Plain",
    "city": "San Bernardino",
    "state": "Minnesota",
    "zip": "42840",
    "isJobSite": true,
    "note": "Ratione comedo creptio absorbeo correptius statim nemo."
  },
  {
    "id": 640,
    "userId": "dbfb57db-dda6-4278-8039-ebe2db8198f9",
    "address": "13203 Second Avenue",
    "city": "Dayton",
    "state": "Rhode Island",
    "zip": "77275-6837",
    "isJobSite": true,
    "note": "Claro tumultus ascisco."
  },
  {
    "id": 318,
    "userId": "eadcf4cf-fb46-417a-a091-cd041b69fcdd",
    "address": "1475 N 8th Street",
    "city": "Lake Braedenberg",
    "state": "Nevada",
    "zip": "60992-2554",
    "isJobSite": true,
    "note": "Aegre advoco admiratio vilitas."
  },
  {
    "id": 320,
    "userId": "4ebf0f4b-8c05-4933-a7a8-38fd61d8f3de",
    "address": "909 Stanley Street",
    "city": "Dickensberg",
    "state": "Oklahoma",
    "zip": "99499-8487",
    "isJobSite": false,
    "note": "Desipio coepi adflicto adhaero."
  },
  {
    "id": 39,
    "userId": "78d7e951-bf38-4db6-be6f-d73be9a1013f",
    "address": "235 Kovacek Walk",
    "city": "Walkerburgh",
    "state": "Connecticut",
    "zip": "99824-7124",
    "isJobSite": true,
    "note": "Peior quisquam vulpes turbo umquam conduco trepide altus."
  },
  {
    "id": 393,
    "userId": "a848f4cf-7e43-40d6-8adf-a7530c456760",
    "address": "6359 Jose Lock",
    "city": "Baldwin Park",
    "state": "Vermont",
    "zip": "67570",
    "isJobSite": true,
    "note": "Cibo audeo tempora beatus itaque vestigium."
  }
]